{
  "type": "FeatureCollection",
  "features": [
    {
      "type": "Feature",
      "properties": {
        "norad_id": 26766,
        "name": "INTELSAT 10 (IS-10)",
        "group": "intelsat",
        "lat": -6.72801248269347,
        "lon": 10.064918875967987,
        "alt_km": 36123.34768422855,
        "timestamp": "2025-12-08T08:59:00.439440+00:00",
        "meta_object_name": "INTELSAT 10 (IS-10)",
        "meta_object_id": "2001-019A",
        "meta_epoch": "2025-12-07T12:34:38.803008",
        "meta_mean_motion": 0.99078913,
        "meta_eccentricity": 0.00078602,
        "meta_inclination": 8.6172,
        "meta_ra_of_asc_node": 61.2081,
        "meta_arg_of_pericenter": 221.0792,
        "meta_mean_anomaly": 144.0907,
        "meta_ephemeris_type": 0,
        "meta_classification_type": "U",
        "meta_norad_cat_id": 26766,
        "meta_element_set_no": 999,
        "meta_rev_at_epoch": 4368,
        "meta_bstar": 0,
        "meta_mean_motion_dot": -2.59e-06,
        "meta_mean_motion_ddot": 0,
        "tle_line1": "1 26766U 01019A   25341.52406022 -.00000259  00000+0  00000+0 0  9999",
        "tle_line2": "2 26766   8.6172  61.2081 0007860 221.0792 144.0907  0.99078913 43687"
      },
      "geometry": {
        "type": "Point",
        "coordinates": [
          10.064918875967987,
          -6.72801248269347
        ]
      }
    },
    {
      "type": "Feature",
      "properties": {
        "norad_id": 26900,
        "name": "INTELSAT 902 (IS-902)",
        "group": "intelsat",
        "lat": 5.635671462367274,
        "lon": 161.90266172981234,
        "alt_km": 35785.70834569962,
        "timestamp": "2025-12-08T08:59:00.439464+00:00",
        "meta_object_name": "INTELSAT 902 (IS-902)",
        "meta_object_id": "2001-039A",
        "meta_epoch": "2025-12-01T16:59:59.311968",
        "meta_mean_motion": 1.00270327,
        "meta_eccentricity": 0.00043097,
        "meta_inclination": 5.6187,
        "meta_ra_of_asc_node": 74.2002,
        "meta_arg_of_pericenter": 175.119,
        "meta_mean_anomaly": 26.3816,
        "meta_ephemeris_type": 0,
        "meta_classification_type": "U",
        "meta_norad_cat_id": 26900,
        "meta_element_set_no": 999,
        "meta_rev_at_epoch": 8871,
        "meta_bstar": 0,
        "meta_mean_motion_dot": -2.63e-06,
        "meta_mean_motion_ddot": 0,
        "tle_line1": "1 26900U 01039A   25335.70832537 -.00000263  00000+0  00000+0 0  9993",
        "tle_line2": "2 26900   5.6187  74.2002 0004309 175.1190  26.3816  1.00270327 88713"
      },
      "geometry": {
        "type": "Point",
        "coordinates": [
          161.90266172981234,
          5.635671462367274
        ]
      }
    },
    {
      "type": "Feature",
      "properties": {
        "norad_id": 27380,
        "name": "INTELSAT 904 (IS-904)",
        "group": "intelsat",
        "lat": 6.085767089519657,
        "lon": -179.30538687194132,
        "alt_km": 35788.24394238083,
        "timestamp": "2025-12-08T08:59:00.439481+00:00",
        "meta_object_name": "INTELSAT 904 (IS-904)",
        "meta_object_id": "2002-007A",
        "meta_epoch": "2025-12-07T15:11:43.504224",
        "meta_mean_motion": 1.00268519,
        "meta_eccentricity": 0.0001753,
        "meta_inclination": 6.4419,
        "meta_ra_of_asc_node": 71.4901,
        "meta_arg_of_pericenter": 214.7448,
        "meta_mean_anomaly": 346.82,
        "meta_ephemeris_type": 0,
        "meta_classification_type": "U",
        "meta_norad_cat_id": 27380,
        "meta_element_set_no": 999,
        "meta_rev_at_epoch": 4984,
        "meta_bstar": 0,
        "meta_mean_motion_dot": -2.25e-06,
        "meta_mean_motion_ddot": 0,
        "tle_line1": "1 27380U 02007A   25341.63314241 -.00000225  00000+0  00000+0 0  9996",
        "tle_line2": "2 27380   6.4419  71.4901 0001753 214.7448 346.8200  1.00268519 49844"
      },
      "geometry": {
        "type": "Point",
        "coordinates": [
          -179.30538687194132,
          6.085767089519657
        ]
      }
    },
    {
      "type": "Feature",
      "properties": {
        "norad_id": 27426,
        "name": "DIRECTV 5 (TEMPO 1)",
        "group": "intelsat",
        "lat": 1.8271735974022774,
        "lon": 101.94577135313975,
        "alt_km": 35802.30742765078,
        "timestamp": "2025-12-08T08:59:00.439494+00:00",
        "meta_object_name": "DIRECTV 5 (TEMPO 1)",
        "meta_object_id": "2002-023A",
        "meta_epoch": "2025-12-07T21:40:19.830720",
        "meta_mean_motion": 1.00271738,
        "meta_eccentricity": 0.0003913,
        "meta_inclination": 4.3896,
        "meta_ra_of_asc_node": 77.7079,
        "meta_arg_of_pericenter": 197.7069,
        "meta_mean_anomaly": 16.467,
        "meta_ephemeris_type": 0,
        "meta_classification_type": "U",
        "meta_norad_cat_id": 27426,
        "meta_element_set_no": 999,
        "meta_rev_at_epoch": 8620,
        "meta_bstar": 0,
        "meta_mean_motion_dot": -5.5e-07,
        "meta_mean_motion_ddot": 0,
        "tle_line1": "1 27426U 02023A   25341.90300730 -.00000055  00000+0  00000+0 0  9994",
        "tle_line2": "2 27426   4.3896  77.7079 0003913 197.7069  16.4670  1.00271738 86204"
      },
      "geometry": {
        "type": "Point",
        "coordinates": [
          101.94577135313975,
          1.8271735974022774
        ]
      }
    },
    {
      "type": "Feature",
      "properties": {
        "norad_id": 27438,
        "name": "INTELSAT 905 (IS-905)",
        "group": "intelsat",
        "lat": 0.33882836907318725,
        "lon": 74.98570157729677,
        "alt_km": 35798.286744848454,
        "timestamp": "2025-12-08T08:59:00.439508+00:00",
        "meta_object_name": "INTELSAT 905 (IS-905)",
        "meta_object_id": "2002-027A",
        "meta_epoch": "2025-12-03T09:40:44.149728",
        "meta_mean_motion": 1.00273288,
        "meta_eccentricity": 0.00031296,
        "meta_inclination": 6.2606,
        "meta_ra_of_asc_node": 72.1621,
        "meta_arg_of_pericenter": 189.1417,
        "meta_mean_anomaly": 179.1858,
        "meta_ephemeris_type": 0,
        "meta_classification_type": "U",
        "meta_norad_cat_id": 27438,
        "meta_element_set_no": 999,
        "meta_rev_at_epoch": 4940,
        "meta_bstar": 0,
        "meta_mean_motion_dot": 1.09e-06,
        "meta_mean_motion_ddot": 0,
        "tle_line1": "1 27438U 02027A   25337.40328877  .00000109  00000+0  00000+0 0  9992",
        "tle_line2": "2 27438   6.2606  72.1621 0003129 189.1417 179.1858  1.00273288 49408"
      },
      "geometry": {
        "type": "Point",
        "coordinates": [
          74.98570157729677,
          0.33882836907318725
        ]
      }
    },
    {
      "type": "Feature",
      "properties": {
        "norad_id": 27445,
        "name": "GALAXY 3C (G-3C)",
        "group": "intelsat",
        "lat": 1.9618116598312403,
        "lon": 117.21395957056619,
        "alt_km": 35784.048176539436,
        "timestamp": "2025-12-08T08:59:00.439521+00:00",
        "meta_object_name": "GALAXY 3C (G-3C)",
        "meta_object_id": "2002-030A",
        "meta_epoch": "2025-12-07T21:44:34.424736",
        "meta_mean_motion": 1.00270856,
        "meta_eccentricity": 0.00011351,
        "meta_inclination": 3.2519,
        "meta_ra_of_asc_node": 80.5535,
        "meta_arg_of_pericenter": 100.9691,
        "meta_mean_anomaly": 126.6806,
        "meta_ephemeris_type": 0,
        "meta_classification_type": "U",
        "meta_norad_cat_id": 27445,
        "meta_element_set_no": 999,
        "meta_rev_at_epoch": 4457,
        "meta_bstar": 0,
        "meta_mean_motion_dot": -1.5e-06,
        "meta_mean_motion_ddot": 0,
        "tle_line1": "1 27445U 02030A   25341.90595399 -.00000150  00000+0  00000+0 0  9996",
        "tle_line2": "2 27445   3.2519  80.5535 0001135 100.9691 126.6806  1.00270856 44574"
      },
      "geometry": {
        "type": "Point",
        "coordinates": [
          117.21395957056619,
          1.9618116598312403
        ]
      }
    },
    {
      "type": "Feature",
      "properties": {
        "norad_id": 27513,
        "name": "INTELSAT 906 (IS-906)",
        "group": "intelsat",
        "lat": -1.9256673436101375,
        "lon": -83.79518870946444,
        "alt_km": 35761.46582236981,
        "timestamp": "2025-12-08T08:59:00.439534+00:00",
        "meta_object_name": "INTELSAT 906 (IS-906)",
        "meta_object_id": "2002-041A",
        "meta_epoch": "2025-12-07T20:47:17.411136",
        "meta_mean_motion": 1.00270663,
        "meta_eccentricity": 0.00060751,
        "meta_inclination": 5.3164,
        "meta_ra_of_asc_node": 75.2895,
        "meta_arg_of_pericenter": 188.9426,
        "meta_mean_anomaly": 188.6099,
        "meta_ephemeris_type": 0,
        "meta_classification_type": "U",
        "meta_norad_cat_id": 27513,
        "meta_element_set_no": 999,
        "meta_rev_at_epoch": 8511,
        "meta_bstar": 0,
        "meta_mean_motion_dot": 1.4e-07,
        "meta_mean_motion_ddot": 0,
        "tle_line1": "1 27513U 02041A   25341.86617374  .00000014  00000+0  00000+0 0  9995",
        "tle_line2": "2 27513   5.3164  75.2895 0006075 188.9426 188.6099  1.00270663 85112"
      },
      "geometry": {
        "type": "Point",
        "coordinates": [
          -83.79518870946444,
          -1.9256673436101375
        ]
      }
    }
  ]
}